$$SOE
2459580.500000000, A.D. 2022-Jan-01 00:00:00.0000, 4.549967863166226E+08, -2.953472434298864E+08, 6.406221239090662E+07,
2459587.500000000, A.D. 2022-Jan-08 00:00:00.0000, 4.546589899600665E+08, -2.864997348726255E+08, 6.377575340139483E+07,
2459594.500000000, A.D. 2022-Jan-15 00:00:00.0000, 4.541825089766638E+08, -2.775644043293335E+08, 6.346954869831193E+07,
2459601.500000000, A.D. 2022-Jan-22 00:00:00.0000, 4.535634579140834E+08, -2.685415377167021E+08, 6.314313679902492E+07,
2459608.500000000, A.D. 2022-Jan-29 00:00:00.0000, 4.527977946734187E+08, -2.594314795871107E+08, 6.279603866963585E+07,
2459615.500000000, A.D. 2022-Feb-05 00:00:00.0000, 4.518813099064751E+08, -2.502346404231806E+08, 6.242775703655835E+07,
2459622.500000000, A.D. 2022-Feb-12 00:00:00.0000, 4.508096180800005E+08, -2.409515057036090E+08, 6.203777537004951E+07,
2459629.500000000, A.D. 2022-Feb-19 00:00:00.0000, 4.495781488525816E+08, -2.315826444520369E+08, 6.162555685332780E+07,
2459636.500000000, A.D. 2022-Feb-26 00:00:00.0000, 4.481821374230003E+08, -2.221287180834387E+08, 6.119054339727728E+07,
2459643.500000000, A.D. 2022-Mar-05 00:00:00.0000, 4.466166139789371E+08, -2.125904902680930E+08, 6.073215463470103E+07,
2459650.500000000, A.D. 2022-Mar-12 00:00:00.0000, 4.448763924374544E+08, -2.029688379950799E+08, 6.024978686771362E+07,
2459657.500000000, A.D. 2022-Mar-19 00:00:00.0000, 4.429560585186286E+08, -1.932647639384078E+08, 5.974281196385697E+07,
2459664.500000000, A.D. 2022-Mar-26 00:00:00.0000, 4.408499571464711E+08, -1.834794102799197E+08, 5.921057619889019E+07,
2459671.500000000, A.D. 2022-Apr-02 00:00:00.0000, 4.385521792188494E+08, -1.736140742124529E+08, 5.865239903676067E+07,
2459678.500000000, A.D. 2022-Apr-09 00:00:00.0000, 4.360565479955354E+08, -1.636702253077257E+08, 5.806757182439916E+07,
2459685.500000000, A.D. 2022-Apr-16 00:00:00.0000, 4.333566054440630E+08, -1.536495243083010E+08, 5.745535642561970E+07,
2459692.500000000, A.D. 2022-Apr-23 00:00:00.0000, 4.304455972663044E+08, -1.435538425013387E+08, 5.681498400506745E+07,
2459699.500000000, A.D. 2022-Apr-30 00:00:00.0000, 4.273164547381992E+08, -1.333852841954597E+08, 5.614565395872028E+07,
2459706.500000000, A.D. 2022-May-07 00:00:00.0000, 4.239617764393868E+08, -1.231462145868321E+08, 5.544653255919888E+07,
2459713.500000000, A.D. 2022-May-14 00:00:00.0000, 4.203738112938367E+08, -1.128392903286423E+08, 5.471675145045016E+07,
2459720.500000000, A.D. 2022-May-21 00:00:00.0000, 4.165444409472378E+08, -1.024674924447353E+08, 5.395540625861926E+07,
2459727.500000000, A.D. 2022-May-28 00:00:00.0000, 4.124651610899213E+08, -9.203416299951741E+07, 5.316155530860739E+07,
2459734.500000000, A.D. 2022-Jun-04 00:00:00.0000, 4.081270621284129E+08, -8.154304635013652E+07, 5.233421842556259E+07,
2459741.500000000, A.D. 2022-Jun-11 00:00:00.0000, 4.035208095251030E+08, -7.099833555835065E+07, 5.147237584604747E+07,
2459748.500000000, A.D. 2022-Jun-18 00:00:00.0000, 3.986366240819562E+08, -6.040472460133786E+07, 5.057496728362460E+07,
2459755.500000000, A.D. 2022-Jun-25 00:00:00.0000, 3.934642625154167E+08, -4.976746714688614E+07, 4.964089120259055E+07,
2459762.500000000, A.D. 2022-Jul-02 00:00:00.0000, 3.879929988775402E+08, -3.909244277846204E+07, 4.866900435661275E+07,
2459769.500000000, A.D. 2022-Jul-09 00:00:00.0000, 3.822116077643193E+08, -2.838623140814521E+07, 4.765812166420960E+07,
2459776.500000000, A.D. 2022-Jul-16 00:00:00.0000, 3.761083499695175E+08, -1.765619580935293E+07, 4.660701663127322E+07,
2459783.500000000, A.D. 2022-Jul-23 00:00:00.0000, 3.696709593064992E+08, -6.910573310616413E+06, 4.551442267491667E+07,
2459790.500000000, A.D. 2022-Jul-30 00:00:00.0000, 3.628866318566486E+08, 3.841418769618588E+06, 4.437903524696174E+07,
2459797.500000000, A.D. 2022-Aug-06 00:00:00.0000, 3.557420227240556E+08, 1.458946327565874E+07, 4.319951469865575E+07,
2459804.500000000, A.D. 2022-Aug-13 00:00:00.0000, 3.482232513400988E+08, 2.532201031862933E+07, 4.197449045520736E+07,
2459811.500000000, A.D. 2022-Aug-20 00:00:00.0000, 3.403159160948439E+08, 3.602612939725331E+07, 4.070256693131457E+07,
2459818.500000000, A.D. 2022-Aug-27 00:00:00.0000, 3.320051212933162E+08, 4.668734438971740E+07, 3.938233152164402E+07,
2459825.500000000, A.D. 2022-Sep-03 00:00:00.0000, 3.232755203209921E+08, 5.728944998335943E+07, 3.801236511792202E+07,
2459832.500000000, A.D. 2022-Sep-10 00:00:00.0000, 3.141113795928021E+08, 6.781430846435899E+07, 3.659125572753207E+07,
2459839.500000000, A.D. 2022-Sep-17 00:00:00.0000, 3.044966688032472E+08, 7.824162616494003E+07, 3.511761588395608E+07,
2459846.500000000, A.D. 2022-Sep-24 00:00:00.0000, 2.944151841949240E+08, 8.854870947127433E+07, 3.359010465773667E+07,
2459853.500000000, A.D. 2022-Oct-01 00:00:00.0000, 2.838507130708977E+08, 9.871020132750502E+07, 3.200745519728202E+07,
2459860.500000000, A.D. 2022-Oct-08 00:00:00.0000, 2.727872493981578E+08, 1.086978011877715E+08, 3.036850889341695E+07,
2459867.500000000, A.D. 2022-Oct-15 00:00:00.0000, 2.612092705177577E+08, 1.184799741461329E+08, 2.867225756421625E+07,
2459874.500000000, A.D. 2022-Oct-22 00:00:00.0000, 2.491020851922956E+08, 1.280216550061466E+08, 2.691789503627561E+07,
2459881.500000000, A.D. 2022-Oct-29 00:00:00.0000, 2.364522691031603E+08, 1.372839560329061E+08, 2.510487902969405E+07,
2459888.500000000, A.D. 2022-Nov-05 00:00:00.0000, 2.232482040763152E+08, 1.462238975401119E+08, 2.323300464574803E+07,
2459895.500000000, A.D. 2022-Nov-12 00:00:00.0000, 2.094807327375408E+08, 1.547941854153507E+08, 2.130249076411891E+07,
2459902.500000000, A.D. 2022-Nov-19 00:00:00.0000, 1.951439392869655E+08, 1.629430652352153E+08, 1.931407986677315E+07,
2459909.500000000, A.D. 2022-Nov-26 00:00:00.0000, 1.802360631715389E+08, 1.706142920658871E+08, 1.726915091309443E+07,
2459916.500000000, A.D. 2022-Dec-03 00:00:00.0000, 1.647605437559461E+08, 1.777472648087991E+08, 1.516984361714330E+07,
2459923.500000000, A.D. 2022-Dec-10 00:00:00.0000, 1.487271805903192E+08, 1.842773826212698E+08, 1.301919060764991E+07,
2459930.500000000, A.D. 2022-Dec-17 00:00:00.0000, 1.321533747656789E+08, 1.901366867727844E+08, 1.082125144219860E+07,
2459937.500000000, A.D. 2022-Dec-24 00:00:00.0000, 1.150653918949330E+08, 1.952548514160369E+08, 8.581239359733030E+06,
2459944.500000000, A.D. 2022-Dec-31 00:00:00.0000, 9.749955757940632E+07, 1.995605776014907E+08, 6.305628240857363E+06,
2459951.500000000, A.D. 2023-Jan-07 00:00:00.0000, 7.950326431204700E+07, 2.029834228441220E+08, 4.002224097793058E+06,
2459958.500000000, A.D. 2023-Jan-14 00:00:00.0000, 6.113563906340247E+07, 2.054560583770850E+08, 1.680183298359439E+06,
2459965.500000000, A.D. 2023-Jan-21 00:00:00.0000, 4.246770703655561E+07, 2.069168854751090E+08, -6.500409107003063E+05,
2459972.500000000, A.D. 2023-Jan-28 00:00:00.0000, 2.358189912973087E+07, 2.073128750426362E+08, -2.976839224822551E+06,
2459979.500000000, A.D. 2023-Feb-04 00:00:00.0000, 4.570786256614459E+06, 2.066024248878939E+08, -5.287682586441547E+06,
2459986.500000000, A.D. 2023-Feb-11 00:00:00.0000, -1.446500311113802E+07, 2.047579668386090E+08, -7.569451380806029E+06,
2459993.500000000, A.D. 2023-Feb-18 00:00:00.0000, -3.341961962589262E+07, 2.017680298303722E+08, -9.808841608802393E+06,
2460000.500000000, A.D. 2023-Feb-25 00:00:00.0000, -5.218540425684560E+07, 1.976384901745111E+08, -1.199281846812220E+07,
2460007.500000000, A.D. 2023-Mar-04 00:00:00.0000, -7.065659146307467E+07, 1.923928199794482E+08, -1.410907737697388E+07,
2460014.500000000, A.D. 2023-Mar-11 00:00:00.0000, -8.873296036821216E+07, 1.860712688291973E+08, -1.614646844822571E+07,
2460021.500000000, A.D. 2023-Mar-18 00:00:00.0000, -1.063230887166920E+08, 1.787290567598399E+08, -1.809534433226836E+07,
2460028.500000000, A.D. 2023-Mar-25 00:00:00.0000, -1.233469254471038E+08, 1.704337853161165E+08, -1.994780250629663E+07,
2460035.500000000, A.D. 2023-Apr-01 00:00:00.0000, -1.397375051895402E+08, 1.612623594818878E+08, -2.169780867216924E+07,
2460042.500000000, A.D. 2023-Apr-08 00:00:00.0000, -1.554417553194859E+08, 1.512977415338686E+08, -2.334120398495696E+07,
2460049.500000000, A.D. 2023-Apr-15 00:00:00.0000, -1.704204634453321E+08, 1.406258272412972E+08, -2.487561222557813E+07,
2460056.500000000, A.D. 2023-Apr-22 00:00:00.0000, -1.846475524847820E+08, 1.293326650150455E+08, -2.630027191199956E+07,
2460063.500000000, A.D. 2023-Apr-29 00:00:00.0000, -1.981088523273276E+08, 1.175021584937595E+08, -2.761582084054554E+07,
2460070.500000000, A.D. 2023-May-06 00:00:00.0000, -2.108005668289564E+08, 1.052143099160687E+08, -2.882405849641431E+07,
2460077.500000000, A.D. 2023-May-13 00:00:00.0000, -2.227276119247527E+08, 9.254399242303412E+07, -2.992770746658965E+07,
2460084.500000000, A.D. 2023-May-20 00:00:00.0000, -2.339019622710331E+08, 7.956019492145954E+07, -3.093018923236103E+07,
2460091.500000000, A.D. 2023-May-27 00:00:00.0000, -2.443411025771536E+08, 6.632565972131611E+07, -3.183542393878809E+07,
2460098.500000000, A.D. 2023-Jun-03 00:00:00.0000, -2.540666419088970E+08, 5.289682613522982E+07, -3.264765884925498E+07,
2460105.500000000, A.D. 2023-Jun-10 00:00:00.0000, -2.631031184682544E+08, 3.932399750394432E+07, -3.337132652218672E+07,
2460112.500000000, A.D. 2023-Jun-17 00:00:00.0000, -2.714769998181584E+08, 2.565165982164461E+07, -3.401093129941256E+07,
2460119.500000000, A.D. 2023-Jun-24 00:00:00.0000, -2.792158685336794E+08, 1.191889362782192E+07, -3.457096127863371E+07,
2460126.500000000, A.D. 2023-Jul-01 00:00:00.0000, -2.863477748330605E+08, -1.840164945748735E+06, -3.505582221656228E+07,
2460133.500000000, A.D. 2023-Jul-08 00:00:00.0000, -2.929007357879252E+08, -1.559584601519732E+07, -3.546978950265382E+07,
2460140.500000000, A.D. 2023-Jul-15 00:00:00.0000, -2.989023595541694E+08, -2.932247629831624E+07, -3.581697487307549E+07,
2460147.500000000, A.D. 2023-Jul-22 00:00:00.0000, -3.043795694167545E+08, -4.299793386266965E+07, -3.610130519460222E+07,
$$EOE